ADRAS-J                 
1 58992U 24034A   24100.84682311  .00004049  00000+0  38061-3 0  9993
2 58992  98.2068  70.8293 0042830 273.5013  86.1307 14.93846494  7661
